{
  "norad_id": 43912,
  "name": "YUNHAI-2 01D",
  "history": [
    {
      "epoch": "2026-03-28T21:56:38.168160Z",
      "apogee_km": 806.3401728419994,
      "perigee_km": 783.8327495877456,
      "latitude_deg": 1.7405340003920774e-05,
      "longitude_deg": 112.69083917820628,
      "height_km": 790.6754983716487,
      "semi_major_axis_km": 7173.223461214872,
      "eccentricity": 0.00156885,
      "inclination_deg": 50.0097,
      "raan_deg": 268.1778,
      "arg_perigee_deg": 64.1177,
      "mean_anomaly_deg": 296.1354,
      "mean_motion_rev_day": 14.28996686
    },
    {
      "epoch": "2026-03-29T04:39:26.493696Z",
      "apogee_km": 806.3385471702613,
      "perigee_km": 783.8332776049365,
      "latitude_deg": -5.4040404995142814e-05,
      "longitude_deg": 10.526412715893617,
      "height_km": 790.8467348304525,
      "semi_major_axis_km": 7173.222912387599,
      "eccentricity": 0.0015687,
      "inclination_deg": 50.0098,
      "raan_deg": 266.9905,
      "arg_perigee_deg": 65.0852,
      "mean_anomaly_deg": 295.1691,
      "mean_motion_rev_day": 14.2899685
    },
    {
      "epoch": "2026-03-30T04:09:15.594624Z",
      "apogee_km": 806.3219450453407,
      "perigee_km": 783.8439430287062,
      "latitude_deg": 1.8234874900291322e-05,
      "longitude_deg": 12.951000057727443,
      "height_km": 791.4742023196812,
      "semi_major_axis_km": 7173.219944037023,
      "eccentricity": 0.0015668,
      "inclination_deg": 50.0098,
      "raan_deg": 262.8346,
      "arg_perigee_deg": 68.5567,
      "mean_anomaly_deg": 291.7018,
      "mean_motion_rev_day": 14.28997737
    },
    {
      "epoch": "2026-03-30T05:49:57.671904Z",
      "apogee_km": 806.3213805822634,
      "perigee_km": 783.8442397714707,
      "latitude_deg": 3.667978790972017e-05,
      "longitude_deg": -12.590034054360016,
      "height_km": 791.5191810593927,
      "semi_major_axis_km": 7173.219810176867,
      "eccentricity": 0.00156674,
      "inclination_deg": 50.0098,
      "raan_deg": 262.5378,
      "arg_perigee_deg": 68.8032,
      "mean_anomaly_deg": 291.4556,
      "mean_motion_rev_day": 14.28997777
    },
    {
      "epoch": "2026-03-30T14:13:28.060032Z",
      "apogee_km": 806.3205734720632,
      "perigee_km": 783.8437216663042,
      "latitude_deg": 5.678264120275395e-05,
      "longitude_deg": -140.2956720091939,
      "height_km": 791.7462335067477,
      "semi_major_axis_km": 7173.219147569183,
      "eccentricity": 0.00156672,
      "inclination_deg": 50.0098,
      "raan_deg": 261.0534,
      "arg_perigee_deg": 70.0452,
      "mean_anomaly_deg": 290.215,
      "mean_motion_rev_day": 14.28997975
    },
    {
      "epoch": "2026-03-30T20:56:16.363968Z",
      "apogee_km": 806.3213625743592,
      "perigee_km": 783.8415002608772,
      "latitude_deg": -5.5169933917613145e-05,
      "longitude_deg": 117.53995823616398,
      "height_km": 791.9246268130843,
      "semi_major_axis_km": 7173.2184314176175,
      "eccentricity": 0.00156693,
      "inclination_deg": 50.0098,
      "raan_deg": 259.8661,
      "arg_perigee_deg": 71.0178,
      "mean_anomaly_deg": 289.2433,
      "mean_motion_rev_day": 14.28998189
    }
  ]
}